{"type": "FeatureCollection", "features": [ {"type": "Feature", "properties": {"norad_id": 66526, "name": "STARLINK-35932", "group": "last-30-days", "lat": -5.32004770214706, "lon": 56.695452385134786, "alt_km": 415.4052369265937, "timestamp": "2025-12-11T07:02:22.477195+00:00", "meta": {"OBJECT_NAME": "STARLINK-35932", "OBJECT_ID": "2025-265L", "EPOCH": "2025-12-10T22:00:03.000096", "MEAN_MOTION": 15.50617884, "ECCENTRICITY": 0.00017321, "INCLINATION": 43.0002, "RA_OF_ASC_NODE": 64.634, "ARG_OF_PERICENTER": 269.5815, "MEAN_ANOMALY": 137.8592, "EPHEMERIS_TYPE": 0, "CLASSIFICATION_TYPE": "U", "NORAD_CAT_ID": 66526, "ELEMENT_SET_NO": 999, "REV_AT_EPOCH": 459, "BSTAR": -0.0018788356, "MEAN_MOTION_DOT": -0.00109195, "MEAN_MOTION_DDOT": 0}, "tle": {"line1": "1 66526U 25265L   25344.91670139 -.00109195  00000+0 -18788-2 0  9999", "line2": "2 66526  43.0002  64.6340 0001732 269.5815 137.8592 15.50617884  4596"}}, "geometry": {"type": "Point", "coordinates": [56.695452385134786, -5.32004770214706]}}, {"type": "Feature", "properties": {"norad_id": 66527, "name": "STARLINK-35935", "group": "last-30-days", "lat": -4.019152377215561, "lon": 58.10167887922981, "alt_km": 415.3462018754917, "timestamp": "2025-12-11T07:02:22.477207+00:00", "meta": {"OBJECT_NAME": "STARLINK-35935", "OBJECT_ID": "2025-265M", "EPOCH": "2025-12-10T22:00:03.000096", "MEAN_MOTION": 15.50633931, "ECCENTRICITY": 0.0001644, "INCLINATION": 43.0001, "RA_OF_ASC_NODE": 64.6294, "ARG_OF_PERICENTER": 267.0064, "MEAN_ANOMALY": 142.3397, "EPHEMERIS_TYPE": 0, "CLASSIFICATION_TYPE": "U", "NORAD_CAT_ID": 66527, "ELEMENT_SET_NO": 999, "REV_AT_EPOCH": 470, "BSTAR": -0.0022350811, "MEAN_MOTION_DOT": -0.00129572, "MEAN_MOTION_DDOT": 0}, "tle": {"line1": "1 66527U 25265M   25344.91670139 -.00129572  00000+0 -22351-2 0  9992", "line2": "2 66527  43.0001  64.6294 0001644 267.0064 142.3397 15.50633931  4703"}}, "geometry": {"type": "Point", "coordinates": [58.10167887922981, -4.019152377215561]}}, {"type": "Feature", "properties": {"norad_id": 66528, "name": "STARLINK-35928", "group": "last-30-days", "lat": -2.716144961199698, "lon": 59.503249916940554, "alt_km": 415.0933141419064, "timestamp": "2025-12-11T07:02:22.477220+00:00", "meta": {"OBJECT_NAME": "STARLINK-35928", "OBJECT_ID": "2025-265N", "EPOCH": "2025-12-10T22:00:03.000096", "MEAN_MOTION": 15.50633169, "ECCENTRICITY": 0.00015858, "INCLINATION": 43.0003, "RA_OF_ASC_NODE": 64.6249, "ARG_OF_PERICENTER": 273.6347, "MEAN_ANOMALY": 137.6267, "EPHEMERIS_TYPE": 0, "CLASSIFICATION_TYPE": "U", "NORAD_CAT_ID": 66528, "ELEMENT_SET_NO": 999, "REV_AT_EPOCH": 470, "BSTAR": -0.0021728166, "MEAN_MOTION_DOT": -0.00126025, "MEAN_MOTION_DDOT": 0}, "tle": {"line1": "1 66528U 25265N   25344.91670139 -.00126025  00000+0 -21728-2 0  9990", "line2": "2 66528  43.0003  64.6249 0001585 273.6347 137.6267 15.50633169  4703"}}, "geometry": {"type": "Point", "coordinates": [59.503249916940554, -2.716144961199698]}}, {"type": "Feature", "properties": {"norad_id": 66529, "name": "STARLINK-35933", "group": "last-30-days", "lat": -2.2500960052326073, "lon": 60.00231127588912, "alt_km": 420.21854484528285, "timestamp": "2025-12-11T07:02:22.477232+00:00", "meta": {"OBJECT_NAME": "STARLINK-35933", "OBJECT_ID": "2025-265P", "EPOCH": "2025-12-10T22:00:03.000096", "MEAN_MOTION": 15.50562166, "ECCENTRICITY": 0.00016399, "INCLINATION": 43, "RA_OF_ASC_NODE": 64.6193, "ARG_OF_PERICENTER": 272.9221, "MEAN_ANOMALY": 140.2538, "EPHEMERIS_TYPE": 0, "CLASSIFICATION_TYPE": "U", "NORAD_CAT_ID": 66529, "ELEMENT_SET_NO": 999, "REV_AT_EPOCH": 470, "BSTAR": -0.040968632, "MEAN_MOTION_DOT": -0.02129378, "MEAN_MOTION_DDOT": 0}, "tle": {"line1": "1 66529U 25265P   25344.91670139 -.02129378  00000+0 -40969-1 0  9994", "line2": "2 66529  43.0000  64.6193 0001639 272.9221 140.2538 15.50562166  4701"}}, "geometry": {"type": "Point", "coordinates": [60.00231127588912, -2.2500960052326073]}}, {"type": "Feature", "properties": {"norad_id": 66530, "name": "STARLINK-35961", "group": "last-30-days", "lat": -0.10078402108958144, "lon": 62.304026529667496, "alt_km": 414.76525401169056, "timestamp": "2025-12-11T07:02:22.477243+00:00", "meta": {"OBJECT_NAME": "STARLINK-35961", "OBJECT_ID": "2025-265Q", "EPOCH": "2025-12-10T22:00:03.000096", "MEAN_MOTION": 15.50580056, "ECCENTRICITY": 0.00016721, "INCLINATION": 43.0002, "RA_OF_ASC_NODE": 64.6156, "ARG_OF_PERICENTER": 270.7231, "MEAN_ANOMALY": 144.385, "EPHEMERIS_TYPE": 0, "CLASSIFICATION_TYPE": "U", "NORAD_CAT_ID": 66530, "ELEMENT_SET_NO": 999, "REV_AT_EPOCH": 470, "BSTAR": -0.00010030654, "MEAN_MOTION_DOT": -6.222e-05, "MEAN_MOTION_DDOT": 0}, "tle": {"line1": "1 66530U 25265Q   25344.91670139 -.00006222  00000+0 -10031-3 0  9995", "line2": "2 66530  43.0002  64.6156 0001672 270.7231 144.3850 15.50580056  4708"}}, "geometry": {"type": "Point", "coordinates": [62.304026529667496, -0.10078402108958144]}}, {"type": "Feature", "properties": {"norad_id": 66531, "name": "STARLINK-35960", "group": "last-30-days", "lat": 1.2013082633417351, "lon": 63.696418566859656, "alt_km": 414.83641833714773, "timestamp": "2025-12-11T07:02:22.477252+00:00", "meta": {"OBJECT_NAME": "STARLINK-35960", "OBJECT_ID": "2025-265R", "EPOCH": "2025-12-10T22:00:03.000096", "MEAN_MOTION": 15.50561597, "ECCENTRICITY": 0.00016225, "INCLINATION": 43.0003, "RA_OF_ASC_NODE": 64.6103, "ARG_OF_PERICENTER": 264.8804, "MEAN_ANOMALY": 152.1717, "EPHEMERIS_TYPE": 0, "CLASSIFICATION_TYPE": "U", "NORAD_CAT_ID": 66531, "ELEMENT_SET_NO": 999, "REV_AT_EPOCH": 470, "BSTAR": -0.00038304577, "MEAN_MOTION_DOT": -0.00022734, "MEAN_MOTION_DDOT": 0}, "tle": {"line1": "1 66531U 25265R   25344.91670139 -.00022734  00000+0 -38305-3 0  9996", "line2": "2 66531  43.0003  64.6103 0001622 264.8804 152.1717 15.50561597  4705"}}, "geometry": {"type": "Point", "coordinates": [63.696418566859656, 1.2013082633417351]}}, {"type": "Feature", "properties": {"norad_id": 66532, "name": "STARLINK-35914", "group": "last-30-days", "lat": 2.512770072506705, "lon": 65.1007389719771, "alt_km": 414.6570052782563, "timestamp": "2025-12-11T07:02:22.477262+00:00", "meta": {"OBJECT_NAME": "STARLINK-35914", "OBJECT_ID": "2025-265S", "EPOCH": "2025-12-10T22:00:03.000096", "MEAN_MOTION": 15.50626058, "ECCENTRICITY": 0.0001735, "INCLINATION": 43, "RA_OF_ASC_NODE": 64.6049, "ARG_OF_PERICENTER": 268.9206, "MEAN_ANOMALY": 150.0173, "EPHEMERIS_TYPE": 0, "CLASSIFICATION_TYPE": "U", "NORAD_CAT_ID": 66532, "ELEMENT_SET_NO": 999, "REV_AT_EPOCH": 470, "BSTAR": -0.0020609847, "MEAN_MOTION_DOT": -0.00119625, "MEAN_MOTION_DDOT": 0}, "tle": {"line1": "1 66532U 25265S   25344.91670139 -.00119625  00000+0 -20610-2 0  9992", "line2": "2 66532  43.0000  64.6049 0001735 268.9206 150.0173 15.50626058  4705"}}, "geometry": {"type": "Point", "coordinates": [65.1007389719771, 2.512770072506705]}}, {"type": "Feature", "properties": {"norad_id": 66533, "name": "STARLINK-35707", "group": "last-30-days", "lat": 3.8173515440040022, "lon": 66.50336416515576, "alt_km": 414.50684373894, "timestamp": "2025-12-11T07:02:22.477272+00:00", "meta": {"OBJECT_NAME": "STARLINK-35707", "OBJECT_ID": "2025-265T", "EPOCH": "2025-12-10T22:00:03.000096", "MEAN_MOTION": 15.50633155, "ECCENTRICITY": 0.00016039, "INCLINATION": 43.0002, "RA_OF_ASC_NODE": 64.6007, "ARG_OF_PERICENTER": 269.8637, "MEAN_ANOMALY": 150.9903, "EPHEMERIS_TYPE": 0, "CLASSIFICATION_TYPE": "U", "NORAD_CAT_ID": 66533, "ELEMENT_SET_NO": 999, "REV_AT_EPOCH": 470, "BSTAR": -0.0023152661, "MEAN_MOTION_DOT": -0.00134127, "MEAN_MOTION_DDOT": 0}, "tle": {"line1": "1 66533U 25265T   25344.91670139 -.00134127  00000+0 -23153-2 0  9992", "line2": "2 66533  43.0002  64.6007 0001603 269.8637 150.9903 15.50633155  4700"}}, "geometry": {"type": "Point", "coordinates": [66.50336416515576, 3.8173515440040022]}}, {"type": "Feature", "properties": {"norad_id": 66534, "name": "STARLINK-35976", "group": "last-30-days", "lat": 5.118956281286715, "lon": 67.90923773886614, "alt_km": 414.3606076274882, "timestamp": "2025-12-11T07:02:22.477282+00:00", "meta": {"OBJECT_NAME": "STARLINK-35976", "OBJECT_ID": "2025-265U", "EPOCH": "2025-12-10T22:00:03.000096", "MEAN_MOTION": 15.50625685, "ECCENTRICITY": 0.00017285, "INCLINATION": 43.0003, "RA_OF_ASC_NODE": 64.5962, "ARG_OF_PERICENTER": 269.5579, "MEAN_ANOMALY": 153.2118, "EPHEMERIS_TYPE": 0, "CLASSIFICATION_TYPE": "U", "NORAD_CAT_ID": 66534, "ELEMENT_SET_NO": 999, "REV_AT_EPOCH": 470, "BSTAR": -0.0020287685, "MEAN_MOTION_DOT": -0.00117786, "MEAN_MOTION_DDOT": 0}, "tle": {"line1": "1 66534U 25265U   25344.91670139 -.00117786  00000+0 -20288-2 0  9991", "line2": "2 66534  43.0003  64.5962 0001728 269.5579 153.2118 15.50625685  4704"}}, "geometry": {"type": "Point", "coordinates": [67.90923773886614, 5.118956281286715]}}, {"type": "Feature", "properties": {"norad_id": 66535, "name": "STARLINK-35514", "group": "last-30-days", "lat": 6.419400208069751, "lon": 69.32265890946977, "alt_km": 414.1839101724172, "timestamp": "2025-12-11T07:02:22.477292+00:00", "meta": {"OBJECT_NAME": "STARLINK-35514", "OBJECT_ID": "2025-265V", "EPOCH": "2025-12-10T22:00:03.000096", "MEAN_MOTION": 15.50631472, "ECCENTRICITY": 0.00016082, "INCLINATION": 43.0004, "RA_OF_ASC_NODE": 64.5914, "ARG_OF_PERICENTER": 271.1893, "MEAN_ANOMALY": 153.4981, "EPHEMERIS_TYPE": 0, "CLASSIFICATION_TYPE": "U", "NORAD_CAT_ID": 66535, "ELEMENT_SET_NO": 999, "REV_AT_EPOCH": 470, "BSTAR": -0.0022265724, "MEAN_MOTION_DOT": -0.00129077, "MEAN_MOTION_DDOT": 0}, "tle": {"line1": "1 66535U 25265V   25344.91670139 -.00129077  00000+0 -22266-2 0  9996", "line2": "2 66535  43.0004  64.5914 0001608 271.1893 153.4981 15.50631472  4709"}}, "geometry": {"type": "Point", "coordinates": [69.32265890946977, 6.419400208069751]}}]}